0 METEOSAT 11 (MSG 4)
1 40732U 15034A   19173.33217566 -.00000003  00000-0  00000+0 0  9996
2 40732   1.0379 258.4090 0002125 218.5285 273.2371  1.00264455 14442
0 METEOSAT 11 (MSG 4)
1 40732U 15034A   19172.82965956 -.00000004 +00000-0 +00000-0 0  9994
2 40732 001.0390 258.4424 0002115 218.7776 091.5672 01.00264364014446
0 METEOSAT 11 (MSG 4)
1 40732U 15034A   19173.33217566 -.00000003  00000-0  00000+0 0  9996
2 40732   1.0379 258.4090 0002125 218.5285 273.2371  1.00264455 14442
0 STARONE C4
1 40733U 15034B   19173.39008505 -.00000267  00000-0  00000+0 0  9996
2 40733   0.0503  70.3886 0001952 352.3121 277.9998  1.00270398 14447
0 STARONE C4
1 40733U 15034B   19172.91805355 -.00000268 +00000-0 +00000-0 0  9993
2 40733 000.0495 069.5512 0001983 352.3538 108.4011 01.00270552014445
0 ARIANE 5 R/B
1 40734U 15034C   19172.85285580 +.00000645 +00000-0 +32154-3 0  9995
2 40734 003.6957 208.3888 7257204 283.2487 011.1245 02.30192998032943
0 ARIANE 5 DEB (SYLDA)
1 40735U 15034D   19172.73267277 +.00001616 +00000-0 +96755-3 0  9992
2 40735 003.8450 135.7407 6946727 070.5580 348.4169 02.68476302036196
0 WGS 7 (USA 263)
1 40746U 15036A   19173.82496610  .00000016  00000-0  00000+0 0  9999
2 40746   0.0352  59.0088 0000083 261.8943  61.7619  1.00272494 14292
0 BD-18
1 40748U 15037A   19173.46093463 -.00000098  00000-0  00000+0 0  9992
2 40748  55.8330  28.5388 0005708 289.5208 314.4573  1.86231189 26595
0 BD-18
1 40748U 15037A   19172.53778325 -.00000101 +00000-0 +00000-0 0  9992
2 40748 055.8325 028.5701 0005734 289.2548 055.7989 01.86231194026571
0 YZ-1 R/B
1 40751U 15037D   19172.92515369 -.00000094  00000-0  00000+0 0  9996
2 40751  56.0097  42.8578 0927674  41.9121 324.9159  1.56591442 22366
0 DELTA 1 DEB
1 40754U 76077FX  19172.16247453 -.00000040 +00000-0 +33599-4 0  9997
2 40754 102.1485 139.9199 0093560 338.3481 021.3631 12.25038764691164
0 DELTA 1 DEB
1 40757U 76077GA  19173.11038289  .00000077  00000-0  74994-3 0  9993
2 40757 101.5673 133.3574 0007348  48.6586  14.5054 12.54274627256779
0 DELTA 1 DEB
1 40764U 76077GH  19173.73809379 -.00000057  00000-0 -99659-4 0  9991
2 40764 101.8369 148.5142 0001871  93.1536 266.9742 12.40549875585425
0 DELTA 1 DEB
1 40765U 76077GJ  19172.35707292 +.00000231 +00000-0 +19403-2 0  9999
2 40765 101.8678 141.7455 0027371 162.2040 197.9991 12.44706575253564
0 DELTA 1 DEB
1 40771U 76077GQ  19173.42515149 -.00000015  00000-0  21926-3 0  9998
2 40771 101.8550 149.4861 0012790 276.2414 236.6809 12.39651060222495
0 COSMOS 2251 DEB
1 40798U 93036BWB 19172.72269073 +.00000669 +00000-0 +17060-3 0  9993
2 40798 074.0389 186.4590 0006130 161.2556 198.8832 14.52527859246964
0 COSMOS 2251 DEB
1 40806U 93036BWK 19172.21466800 +.00002377 +00000-0 +33704-3 0  9995
2 40806 074.0117 090.7266 0009219 349.0436 161.3609 14.77599372250669
0 COSMOS 2251 DEB
1 40810U 93036BWP 19173.04667208  .00000230  00000-0  71381-4 0  9997
2 40810  74.0381 194.0040 0023247 212.7604 147.2115 14.46339635274026
0 COSMOS 2251 DEB
1 40811U 93036BWQ 19172.33847783 +.00001171 +00000-0 +21004-3 0  9998
2 40811 074.0265 065.2333 0043618 038.0415 322.3820 14.67369235697328
0 CZ-3C DEB
1 40818U 10057AK  19173.51283408  .00000189  00000-0  82491-2 0  9990
2 40818  20.3105 265.0705 7122743   1.2362 359.8900  2.25690639 35339
0 CZ-3C DEB
1 40823U 10057AQ  19173.37955688 -.00000080  00000-0  42623-3 0  9991
2 40823  20.4418 249.1668 7195382  22.9091 357.3725  2.23384726 35942
0 CZ-3C DEB
1 40829U 10057AW  19173.18754154 -.00000055  00000-0 -80067-4 0  9999
2 40829  20.6298 162.3132 7123213 172.6751 210.3440  2.34108749 36931
0 CZ-3C DEB
1 40832U 10057AZ  19172.23730516 -.00000040 +00000-0 -48533-5 0  9991
2 40832 019.8147 226.9813 7191389 071.7122 349.5784 02.25753194035453
0 CZ-3C DEB
1 40834U 10057BB  19173.39349633 -.00000182  00000-0  59379-3 0  9991
2 40834  20.3669 288.7497 7182495 321.4208   4.7887  2.19617041 34426
0 CZ-3B DEB
1 40843U 11077Y   19173.09999108 -.00000222  00000-0  11497-3 0  9993
2 40843  21.8138 236.8997 7496682 185.0919 156.6523  1.94097563 42483
0 CZ-3C DEB
1 40855U 12008V   19173.21107000 -.00000059  00000-0  37113-3 0  9998
2 40855  22.0315 162.1278 7057673  58.0723   4.7068  2.31831422 39119
0 CZ-3C DEB
1 40859U 12008Z   19173.29949786  .00000155  00000-0  31344-2 0  9990
2 40859  21.6785 184.1819 7209353  28.2181 356.8032  2.20560230 36613
0 CZ-3C DEB
1 40867U 12008AH  19173.01335481  .00000014  00000-0  78313-3 0  9992
2 40867  21.2971 163.8855 7199827  69.1718 350.2968  2.24075617 50563
0 MSG 3 DEB (COOLER COVER)
1 40871U 12035E   19173.57938793  .00000088  00000-0  00000+0 0  9998
2 40871   3.8163  84.3036 0029318 233.5547 336.9986  1.01513944 25288
0 MSG 3 DEB (BAFFLE COVER)
1 40872U 12035F   19172.91439453 -.00000069  00000-0  00000+0 0  9995
2 40872   3.7496  84.0935 0088505 158.7432 201.2899  1.02739825 21536
0 INTELSAT 34
1 40874U 15039A   19173.22271576 -.00000288  00000-0  00000+0 0  9992
2 40874   0.0008   5.6723 0000270  44.1290 244.9910  1.00271752 14082
0 EUTE 8 WEST B
1 40875U 15039B   19173.40222951 -.00000068  00000-0  00000+0 0  9992
2 40875   0.0650 357.1833 0004398  95.5421 314.3596  1.00271700 14102
0 EUTE 8 WEST B
1 40875U 15039B   19172.82800208 -.00000069 +00000-0 +00000-0 0  9996
2 40875 000.0654 356.0729 0004381 096.5520 107.1728 01.00271672014081
0 ARIANE 5 R/B
1 40876U 15039C   19172.08570130 +.00000568 +00000-0 +23681-3 0  9999
2 40876 005.0168 229.2682 7225737 276.9800 013.0232 02.34936014032517
0 ARIANE 5 R/B
1 40876U 15039C   19173.36226083  .00000702  00000-0  25207-3 0  9992
2 40876   5.0174 228.6674 7225729 278.1204  12.6988  2.34938354 32490
0 ARIANE 5 DEB (SYLDA)
1 40877U 15039D   19173.37919617  .00016321  00000-0  25205-2 0  9997
2 40877   4.8010 106.7846 6711506 166.5403 228.7162  3.03865157 37987
0 YAOGAN 27
1 40878U 15040A   19173.71010576 -.00000044  00000-0  00000+0 0  9993
2 40878 100.2870 227.9054 0007876 334.7063  25.3666 13.15962145183568
0 YAOGAN 27
1 40878U 15040A   19172.94983896 -.00000044 +00000-0 +00000-0 0  9992
2 40878 100.2871 227.1662 0007904 336.5182 023.5571 13.15962051183460
0 YAOGAN 27
1 40878U 15040A   19173.55805238 -.00000044  00000-0  00000+0 0  9992
2 40878 100.2870 227.7575 0007876 335.1283  24.9454 13.15962143183549
0 YAOGAN 27
1 40878U 15040A   19173.10189238 -.00000044  00000-0  00000+0 0  9998
2 40878 100.2870 227.3141 0007917 336.1369  23.9388 13.15962103183480
0 CZ-4C R/B
1 40879U 15040B   19172.83330164 -.00000025 +00000-0 +42067-4 0  9997
2 40879 100.3241 266.6052 0092901 328.5802 030.9792 13.33230266185831
0 GSAT 6
1 40880U 15041A   19172.92432008 -.00000169 +00000-0 +00000-0 0  9996
2 40880 000.0417 098.6220 0003963 155.7056 071.2662 01.00271991014055
0 GSAT 6
1 40880U 15041A   19173.42046183 -.00000167  00000-0  00000+0 0  9994
2 40880   0.0431  98.8732 0003961 155.0049 250.8155  1.00271911 14047
0 INMARSAT 5-F3
1 40882U 15042A   19172.79363112 +.00000047 +00000-0 +00000-0 0  9997
2 40882 000.0186 015.6355 0000762 091.3301 268.0233 01.00272358013978
0 INMARSAT 5-F3
1 40882U 15042A   19173.09632727  .00000047  00000-0  00000+0 0  9991
2 40882   0.0184  18.0708 0000758  92.4210  13.7665  1.00272362 13969
0 MUOS 4
1 40887U 15044A   19173.52208398 -.00000095  00000-0  00000+0 0  9993
2 40887   3.3752 336.8748 0053283   4.0752 192.4411  1.00272658 13981
0 MUOS 4
1 40887U 15044A   19172.84448969 -.00000096 +00000-0 +00000-0 0  9999
2 40887 003.3760 336.8671 0053318 004.1232 307.7976 01.00272622013975
0 FREGAT R/B
1 40891U 15045C   19173.41181183 -.00000049  00000-0  00000+0 0  9998
2 40891  56.3900 293.2179 0022954 212.1609 147.7086  1.67827574 23176
0 TJS-1
1 40892U 15046A   19173.88791907 -.00000158  00000-0  10000-3 0  9998
2 40892   0.0450  77.2012 0004357   8.3613 299.8377  1.00271834 13974
0 TJS-1
1 40892U 15046A   19172.88050979 -.00000160 +00000-0 +10000-3 0  9997
2 40892 000.0433 074.7605 0004351 010.1117 296.8667 01.00271835013968
0 GAOFEN 9
1 40894U 15047A   19172.90203042 -.00000052 +00000-0 +00000-0 0  9990
2 40894 097.9164 254.9493 0034628 132.8306 227.5820 14.76282891203138
0 GAOFEN 9
1 40894U 15047A   19173.44426219 -.00000052  00000-0  00000+0 0  9992
2 40894  97.9165 255.4807 0034684 131.1294 229.2919 14.76282962203210
0 GAOFEN 9
1 40894U 15047A   19173.85093599 -.00000052  00000-0  00000+0 0  9998
2 40894  97.9164 255.8793 0034754 129.8353 230.5922 14.76282999203270
0 GAOFEN 9
1 40894U 15047A   19173.17314637 -.00000052  00000-0  00000+0 0  9992
2 40894  97.9164 255.2150 0034661 131.9761 228.4414 14.76282940203172
0 OBJECT A
1 40899U 15049A   19173.02899179  .00000035  00000-0  52272-5 0  9996
2 40899  97.4600 176.3834 0014348 193.8812 250.8430 15.16337822207641
0 OBJECT A
1 40899U 15049A   19173.36305200  .00000056  00000-0  63141-5 0  9990
2 40899  97.4599 176.7118 0014362 192.6590 274.4800 15.16338066207692
0 OBJECT A
1 40899U 15049A   19173.74930703  .00000116  00000-0  94334-5 0  9999
2 40899  97.4599 177.0917 0014453 191.0481 223.2513 15.16338776207754
0 NUDT-PHONESAT
1 40900U 15049B   19173.71687697  .00001000  00000-0  45786-4 0  9999
2 40900  97.4361 183.0110 0013202 163.1106 285.8231 15.22775289208271
0 NUDT-PHONESAT
1 40900U 15049B   19173.39171094  .00001044  00000-0  47650-4 0  9992
2 40900  97.4361 182.6891 0013154 164.2161 303.3026 15.22774897208228
0 NUDT-PHONESAT
1 40900U 15049B   19172.98802610  .00001070  00000-0  48750-4 0  9992
2 40900  97.4360 182.2896 0013129 165.6395 250.3003 15.22774134208167
0 NUDT-PHONESAT
1 40900U 15049B   19172.92414214 +.00001059 +00000-0 +48308-4 0  9991
2 40900 097.4361 182.2263 0013126 165.8163 260.1363 15.22773919208155
